[
    {
        "Altitude(m)": 612513.8999787365,
        "Argument of Periapsis(deg)": 0.0,
        "Eccentricity": 0.0,
        "Inclination(deg)": 60.0,
        "Latitude(deg)": -28.135860914472833,
        "Longitude(deg)": 127.91308794007458,
        "Mean Anomaly(deg)": 212.72730000000004,
        "RAAN(deg)": 30.0,
        "Satellite Name": "Test1 145",
        "Satellite Number": 145,
        "Semi-Major Axis(m)": 6980739.136638005,
        "Time(s)": 0
    },
    {
        "Altitude(m)": 612708.2676800647,
        "Argument of Periapsis(deg)": 0.00010418945913296404,
        "Eccentricity": 0.0,
        "Inclination(deg)": 60.0,
        "Latitude(deg)": -28.647600402043697,
        "Longitude(deg)": 128.27031739026847,
        "Mean Anomaly(deg)": 213.34740614546183,
        "RAAN(deg)": 29.99957995086026,
        "Satellite Name": "Test1 145",
        "Satellite Number": 145,
        "Semi-Major Axis(m)": 6980739.136638005,
        "Time(s)": 10
    },
    {
        "Altitude(m)": 612903.4620693031,
        "Argument of Periapsis(deg)": 0.0002083789182659281,
        "Eccentricity": 0.0,
        "Inclination(deg)": 60.0,
        "Latitude(deg)": -29.158099745731537,
        "Longitude(deg)": 128.631414047349,
        "Mean Anomaly(deg)": 213.96751229092365,
        "RAAN(deg)": 29.999159901720517,
        "Satellite Name": "Test1 145",
        "Satellite Number": 145,
        "Semi-Major Axis(m)": 6980739.136638005,
        "Time(s)": 20
    },
    {
        "Altitude(m)": 613099.4119364658,
        "Argument of Periapsis(deg)": 0.00031256837739889213,
        "Eccentricity": 0.0,
        "Inclination(deg)": 60.0,
        "Latitude(deg)": -29.667321876823802,
        "Longitude(deg)": 128.99648938157426,
        "Mean Anomaly(deg)": 214.5876184363855,
        "RAAN(deg)": 29.99873985258077,
        "Satellite Name": "Test1 145",
        "Satellite Number": 145,
        "Semi-Major Axis(m)": 6980739.136638005,
        "Time(s)": 30
    },
    {
        "Altitude(m)": 613296.0455897095,
        "Argument of Periapsis(deg)": 0.0004167578365318562,
        "Eccentricity": 0.0,
        "Inclination(deg)": 60.0,
        "Latitude(deg)": -30.17522873585186,
        "Longitude(deg)": 129.36565785062697,
        "Mean Anomaly(deg)": 215.20772458184734,
        "RAAN(deg)": 29.998319803441028,
        "Satellite Name": "Test1 145",
        "Satellite Number": 145,
        "Semi-Major Axis(m)": 6980739.136638005,
        "Time(s)": 40
    },
    {
        "Altitude(m)": 613493.2908870374,
        "Argument of Periapsis(deg)": 0.0005209472956648203,
        "Eccentricity": 0.0,
        "Inclination(deg)": 60.0,
        "Latitude(deg)": -30.681781234081274,
        "Longitude(deg)": 129.73903595730374,
        "Mean Anomaly(deg)": 215.82783072730916,
        "RAAN(deg)": 29.997899754301283,
        "Satellite Name": "Test1 145",
        "Satellite Number": 145,
        "Semi-Major Axis(m)": 6980739.136638005,
        "Time(s)": 50
    },
    {
        "Altitude(m)": 613691.075268217,
        "Argument of Periapsis(deg)": 0.0006251367547977843,
        "Eccentricity": 0.0,
        "Inclination(deg)": 60.0,
        "Latitude(deg)": -31.18693921366476,
        "Longitude(deg)": 130.11674282019058,
        "Mean Anomaly(deg)": 216.44793687277095,
        "RAAN(deg)": 29.99747970516154,
        "Satellite Name": "Test1 145",
        "Satellite Number": 145,
        "Semi-Major Axis(m)": 6980739.136638005,
        "Time(s)": 60
    },
    {
        "Altitude(m)": 613889.3257868375,
        "Argument of Periapsis(deg)": 0.0007293262139307483,
        "Eccentricity": 0.0,
        "Inclination(deg)": 60.0,
        "Latitude(deg)": -31.690661406415032,
        "Longitude(deg)": 130.4989007442872,
        "Mean Anomaly(deg)": 217.0680430182328,
        "RAAN(deg)": 29.997059656021797,
        "Satellite Name": "Test1 145",
        "Satellite Number": 145,
        "Semi-Major Axis(m)": 6980739.136638005,
        "Time(s)": 70
    },
    {
        "Altitude(m)": 614087.969142563,
        "Argument of Periapsis(deg)": 0.0008335156730637124,
        "Eccentricity": 0.0,
        "Inclination(deg)": 60.0,
        "Latitude(deg)": -32.19290539115781,
        "Longitude(deg)": 130.88563427852182,
        "Mean Anomaly(deg)": 217.68814916369465,
        "RAAN(deg)": 29.996639606882056,
        "Satellite Name": "Test1 145",
        "Satellite Number": 145,
        "Semi-Major Axis(m)": 6980739.136638005,
        "Time(s)": 80
    },
    {
        "Altitude(m)": 614286.9317135164,
        "Argument of Periapsis(deg)": 0.0009377051321966765,
        "Eccentricity": 0.0,
        "Inclination(deg)": 60.0,
        "Latitude(deg)": -32.693627549630534,
        "Longitude(deg)": 131.27707078568884,
        "Mean Anomaly(deg)": 218.3082553091565,
        "RAAN(deg)": 29.996219557742315,
        "Satellite Name": "Test1 145",
        "Satellite Number": 145,
        "Semi-Major Axis(m)": 6980739.136638005,
        "Time(s)": 90
    },
    {
        "Altitude(m)": 614486.1395887987,
        "Argument of Periapsis(deg)": 0.0010418945913296407,
        "Eccentricity": 0.0,
        "Inclination(deg)": 60.0,
        "Latitude(deg)": -33.192783020887056,
        "Longitude(deg)": 131.67334101170258,
        "Mean Anomaly(deg)": 218.92836145461834,
        "RAAN(deg)": 29.995799508602573,
        "Satellite Name": "Test1 145",
        "Satellite Number": 145,
        "Semi-Major Axis(m)": 6980739.136638005,
        "Time(s)": 100
    },
    {
        "Altitude(m)": 614685.5186011195,
        "Argument of Periapsis(deg)": 0.0011460840504626045,
        "Eccentricity": 0.0,
        "Inclination(deg)": 60.0,
        "Latitude(deg)": -33.69032565417125,
        "Longitude(deg)": 132.0745781410292,
        "Mean Anomaly(deg)": 219.54846760008016,
        "RAAN(deg)": 29.99537945946283,
        "Satellite Name": "Test1 145",
        "Satellite Number": 145,
        "Semi-Major Axis(m)": 6980739.136638005,
        "Time(s)": 110
    },
    {
        "Altitude(m)": 614884.9943595217,
        "Argument of Periapsis(deg)": 0.0012502735095955685,
        "Eccentricity": 0.0,
        "Inclination(deg)": 60.0,
        "Latitude(deg)": -34.18620796022977,
        "Longitude(deg)": 132.48091836374869,
        "Mean Anomaly(deg)": 220.16857374554195,
        "RAAN(deg)": 29.994959410323087,
        "Satellite Name": "Test1 145",
        "Satellite Number": 145,
        "Semi-Major Axis(m)": 6980739.136638005,
        "Time(s)": 120
    },
    {
        "Altitude(m)": 615084.4922822001,
        "Argument of Periapsis(deg)": 0.0013544629687285324,
        "Eccentricity": 0.0,
        "Inclination(deg)": 60.0,
        "Latitude(deg)": -34.68038106102824,
        "Longitude(deg)": 132.89250144104372,
        "Mean Anomaly(deg)": 220.7886798910038,
        "RAAN(deg)": 29.994539361183346,
        "Satellite Name": "Test1 145",
        "Satellite Number": 145,
        "Semi-Major Axis(m)": 6980739.136638005,
        "Time(s)": 130
    },
    {
        "Altitude(m)": 615283.9376293888,
        "Argument of Periapsis(deg)": 0.0014586524278614966,
        "Eccentricity": 0.0,
        "Inclination(deg)": 60.0,
        "Latitude(deg)": -35.17279463784168,
        "Longitude(deg)": 133.30946975588287,
        "Mean Anomaly(deg)": 221.40878603646564,
        "RAAN(deg)": 29.994119312043605,
        "Satellite Name": "Test1 145",
        "Satellite Number": 145,
        "Semi-Major Axis(m)": 6980739.136638005,
        "Time(s)": 140
    },
    {
        "Altitude(m)": 615483.2555362983,
        "Argument of Periapsis(deg)": 0.0015628418869944607,
        "Eccentricity": 0.0,
        "Inclination(deg)": 60.0,
        "Latitude(deg)": -35.663396877695625,
        "Longitude(deg)": 133.731968874237,
        "Mean Anomaly(deg)": 222.0288921819275,
        "RAAN(deg)": 29.993699262903853,
        "Satellite Name": "Test1 145",
        "Satellite Number": 145,
        "Semi-Major Axis(m)": 6980739.136638005,
        "Time(s)": 150
    },
    {
        "Altitude(m)": 615682.3710460744,
        "Argument of Periapsis(deg)": 0.0016670313461274247,
        "Eccentricity": 0.0,
        "Inclination(deg)": 60.0,
        "Latitude(deg)": -36.15213441813321,
        "Longitude(deg)": 134.16014810351166,
        "Mean Anomaly(deg)": 222.6489983273893,
        "RAAN(deg)": 29.99327921376411,
        "Satellite Name": "Test1 145",
        "Satellite Number": 145,
        "Semi-Major Axis(m)": 6980739.136638005,
        "Time(s)": 160
    },
    {
        "Altitude(m)": 615881.2091428011,
        "Argument of Periapsis(deg)": 0.0017712208052603888,
        "Eccentricity": 0.0,
        "Inclination(deg)": 60.0,
        "Latitude(deg)": -36.63895229028921,
        "Longitude(deg)": 134.5941595348328,
        "Mean Anomaly(deg)": 223.26910447285115,
        "RAAN(deg)": 29.99285916462437,
        "Satellite Name": "Test1 145",
        "Satellite Number": 145,
        "Semi-Major Axis(m)": 6980739.136638005,
        "Time(s)": 170
    },
    {
        "Altitude(m)": 616079.6947845119,
        "Argument of Periapsis(deg)": 0.001875410264393353,
        "Eccentricity": 0.0,
        "Inclination(deg)": 60.0,
        "Latitude(deg)": -37.12379386025987,
        "Longitude(deg)": 135.03415859438715,
        "Mean Anomaly(deg)": 223.88921061831294,
        "RAAN(deg)": 29.99243911548463,
        "Satellite Name": "Test1 145",
        "Satellite Number": 145,
        "Semi-Major Axis(m)": 6980739.136638005,
        "Time(s)": 180
    },
    {
        "Altitude(m)": 616277.7529361708,
        "Argument of Periapsis(deg)": 0.0019795997235263173,
        "Eccentricity": 0.0,
        "Inclination(deg)": 60.0,
        "Latitude(deg)": -37.60660076876095,
        "Longitude(deg)": 135.48030459035277,
        "Mean Anomaly(deg)": 224.50931676377482,
        "RAAN(deg)": 29.992019066344888,
        "Satellite Name": "Test1 145",
        "Satellite Number": 145,
        "Semi-Major Axis(m)": 6980739.136638005,
        "Time(s)": 190
    }
]